NORAD_CAT_ID,OBJECT_NAME,OBJECT_TYPE,EPOCH,MEAN_MOTION,ECCENTRICITY,INCLINATION,RA_OF_ASC_NODE,ARG_OF_PERICENTER,MEAN_ANOMALY,BSTAR,MEAN_MOTION_DOT,MEAN_MOTION_DDOT,TLE_LINE0,TLE_LINE1,TLE_LINE2,SEMIMAJOR_AXIS,PERIOD,APOGEE,PERIGEE,DECAYED
52341.0,STARLINK-3843,PAYLOAD,2022-11-02 12:10:18,15.08837056,0.0003348,53.2162,300.2103,27.287,332.8298,6.107e-05,6.83e-06,0.0,0 STARLINK-3843,1 52341U 22045L   22306.50715296  .00000683  00000-0  61070-4 0  9991,2 52341  53.2162 300.2103 0003348  27.2870 332.8298 15.08837056 30987,6917.889,95.438,542.07,537.438,0.0
52341.0,STARLINK-3843,PAYLOAD,2022-11-02 16:56:27,15.0883545,0.00034,53.2166,299.318,28.1591,331.9585,1.3194e-05,-7.9e-07,0.0,0 STARLINK-3843,1 52341U 22045L   22306.70587676 -.00000079  00000-0  13194-4 0  9996,2 52341  53.2166 299.3180 0003400  28.1591 331.9585 15.08835450 31013,6917.894,95.438,542.111,537.4069999999998,0.0
52341.0,STARLINK-3843,PAYLOAD,2022-11-03 08:50:18,15.08841885,0.0003466,53.2165,296.344,26.3178,333.7990000000001,0.00018307,2.626e-05,0.0,0 STARLINK-3843,1 52341U 22045L   22307.36826881  .00002626  00000-0  18307-3 0  9992,2 52341  53.2165 296.3440 0003466  26.3178 333.7990 15.08841885 31111,6917.875,95.437,542.137,537.342,0.0
52341.0,STARLINK-3843,PAYLOAD,2022-11-04 10:16:27,15.08851525,0.0002941,53.216,291.5846,26.5708,333.5434,0.0001121,1.497e-05,0.0,0 STARLINK-3843,1 52341U 22045L   22308.42809881  .00001497  00000-0  11210-3 0  9992,2 52341  53.2160 291.5846 0002941  26.5708 333.5434 15.08851525 31271,6917.845,95.437,541.745,537.6759999999998,0.0
52341.0,STARLINK-3843,PAYLOAD,2022-11-05 02:10:19,15.08841262,0.0003314,53.2159,288.6112,27.5507,332.566,6.1322e-05,6.87e-06,0.0,0 STARLINK-3843,1 52341U 22045L   22309.09050451  .00000687  00000-0  61322-4 0  9997,2 52341  53.2159 288.6112 0003314  27.5507 332.5660 15.08841262 31373,6917.877,95.437,542.034,537.4490000000002,0.0
52341.0,STARLINK-3843,PAYLOAD,2022-11-05 10:07:16,15.08834262,0.0003392,53.2172,287.1245,25.1298,334.9859,-0.00013405,-2.422e-05,0.0,0 STARLINK-3843,1 52341U 22045L   22309.42171553 -.00002422  00000-0 -13405-3 0  9990,2 52341  53.2172 287.1245 0003392  25.1298 334.9859 15.08834262 31420,6917.898,95.438,542.109,537.4159999999998,0.0
52341.0,STARLINK-3843,PAYLOAD,2022-11-06 03:36:31,15.08813099,0.0003225,53.2168,283.8554,22.9049,337.2086,-8.4386e-05,-1.631e-05,0.0,0 STARLINK-3843,1 52341U 22045L   22310.15036948 -.00001631  00000-0 -84386-4 0  9998,2 52341  53.2168 283.8554 0003225  22.9049 337.2086 15.08813099 31530,6917.9630000000025,95.439,542.059,537.597,0.0
52341.0,STARLINK-3843,PAYLOAD,2022-11-06 09:58:03,15.08839065,0.0002654,53.2154,282.6635,26.0396,334.0729,-3.6496e-05,-8.69e-06,0.0,0 STARLINK-3843,1 52341U 22045L   22310.41531289 -.00000869  00000-0 -36496-4 0  9996,2 52341  53.2154 282.6635 0002654  26.0396 334.0729 15.08839065 31571,6917.8830000000025,95.438,541.5840000000002,537.9119999999998,0.0
52341.0,STARLINK-3843,PAYLOAD,2022-11-07 20:56:32,15.08829865,0.0003284,53.2169,276.124,19.2414,340.8702,0.00023374,3.433e-05,0.0,0 STARLINK-3843,1 52341U 22045L   22311.87259767  .00003433  00000-0  23374-3 0  9993,2 52341  53.2169 276.1240 0003284  19.2414 340.8702 15.08829865 31799,6917.911,95.438,542.048,537.505,0.0
52341.0,STARLINK-3843,PAYLOAD,2022-11-08 06:28:50,15.0884995,0.000295,53.2163,274.3386,18.2419,341.8679,0.0001385999999999,1.919e-05,0.0,0 STARLINK-3843,1 52341U 22045L   22312.27002820  .00001919  00000-0  13860-3 0  9990,2 52341  53.2163 274.3386 0002950  18.2419 341.8679 15.08849950 31855,6917.85,95.437,541.756,537.674,0.0
52341.0,STARLINK-3843,PAYLOAD,2022-11-08 14:25:45,15.08857606,0.0003006,53.2163,272.8518,19.037,341.0734,0.00018522,2.662e-05,0.0,0 STARLINK-3843,1 52341U 22045L   22312.60121995  .00002662  00000-0  18522-3 0  9998,2 52341  53.2163 272.8518 0003006  19.0370 341.0734 15.08857606 31900,6917.8269999999975,95.436,541.771,537.612,0.0
52341.0,STARLINK-3843,PAYLOAD,2022-11-09 14:16:33,15.08836341,0.000325,53.2166,268.3936,24.7206,335.3942,-5.793e-05,-1.211e-05,0.0,0 STARLINK-3843,1 52341U 22045L   22313.59483174 -.00001211  00000-0 -57930-4 0  9995,2 52341  53.2166 268.3936 0003250  24.7206 335.3942 15.08836341 32056,6917.892,95.438,542.005,537.508,0.0
52341.0,STARLINK-3843,PAYLOAD,2022-11-09 20:38:06,15.0884933,0.0004055,53.2165,267.2071,29.7287,330.3935,-0.00031517,-5.304e-05,0.0,0 STARLINK-3843,1 52341U 22045L   22313.85979524 -.00005304  00000-0 -31517-3 0  9992,2 52341  53.2165 267.2071 0004055  29.7287 330.3935 15.08849330 32094,6917.852,95.437,542.5219999999998,536.9119999999998,0.0
52341.0,STARLINK-3843,PAYLOAD,2022-11-10 02:59:39,15.08826509,0.0003158,53.2173,266.0142,23.1568,336.9566,-0.0002079,-3.595e-05,0.0,0 STARLINK-3843,1 52341U 22045L   22314.12476450 -.00003595  00000-0 -20790-3 0  9994,2 52341  53.2173 266.0142 0003158  23.1568 336.9566 15.08826509 32132,6917.922,95.438,541.971,537.602,0.0
52341.0,STARLINK-3843,PAYLOAD,2022-11-10 06:10:25,15.08833472,0.0003142,53.2172,265.4183,24.7215,335.3927,-0.00016161,-2.860000000000001e-05,0.0,0 STARLINK-3843,1 52341U 22045L   22314.25723967 -.00002860  00000-0 -16161-3 0  9997,2 52341  53.2172 265.4183 0003142  24.7215 335.3927 15.08833472 32151,6917.9,95.438,541.939,537.592,0.0
52341.0,STARLINK-3843,PAYLOAD,2022-11-10 14:07:20,15.08841611,0.0003191999999999,53.2168,263.932,23.9082,336.2058,-9.2974e-05,-1.768e-05,0.0,0 STARLINK-3843,1 52341U 22045L   22314.58843274 -.00001768  00000-0 -92974-4 0  9990,2 52341  53.2168 263.9320 0003192  23.9082 336.2058 15.08841611 32205,6917.875,95.437,541.9490000000002,537.5319999999998,0.0
52341.0,STARLINK-3843,PAYLOAD,2022-11-11 06:01:12,15.08841577,0.0003156,53.2167,260.9578,21.958,338.1546,-0.00013659,-2.462e-05,0.0,0 STARLINK-3843,1 52341U 22045L   22315.25083354 -.00002462  00000-0 -13659-3 0  9994,2 52341  53.2167 260.9578 0003156  21.9580 338.1546 15.08841577 32302,6917.876,95.437,541.924,537.557,0.0
52341.0,STARLINK-3843,PAYLOAD,2022-11-11 20:19:41,15.0881905,0.0003155,53.2167,258.2815,25.8847,334.2302,0.00028792,4.294e-05,0.0,0 STARLINK-3843,1 52341U 22045L   22315.84700522  .00004294  00000-0  28792-3 0  9999,2 52341  53.2167 258.2815 0003155  25.8847 334.2302 15.08819050 32391,6917.944,95.439,541.992,537.627,0.0
52341.0,STARLINK-3843,PAYLOAD,2022-11-12 02:41:13,15.08834971,0.0003128,53.2161,257.0915,26.5701,333.5451,0.000349,5.27e-05,0.0,0 STARLINK-3843,1 52341U 22045L   22316.11196392  .00005270  00000-0  34900-3 0  9997,2 52341  53.2161 257.0915 0003128  26.5701 333.5451 15.08834971 32431,6917.896,95.438,541.925,537.597,0.0
52341.0,STARLINK-3843,PAYLOAD,2022-11-12 13:48:55,15.08856053,0.0003129,53.2161,255.01,27.9005,332.2154,0.00057868,8.938e-05,0.0,0 STARLINK-3843,1 52341U 22045L   22316.57563680  .00008938  00000-0  57868-3 0  9997,2 52341  53.2161 255.0100 0003129  27.9005 332.2154 15.08856053 32507,6917.831,95.437,541.861,537.5319999999998,0.0
52341.0,STARLINK-3843,PAYLOAD,2022-11-13 02:31:59,15.08850964,0.0002621,53.2162,252.6298,24.3995,335.7121,0.00044633,6.824e-05,0.0,0 STARLINK-3843,1 52341U 22045L   22317.10555332  .00006824  00000-0  44633-3 0  9990,2 52341  53.2162 252.6298 0002621  24.3995 335.7121 15.08850964 32589,6917.847,95.437,541.525,537.899,0.0
52341.0,STARLINK-3843,PAYLOAD,2022-11-13 07:18:09,15.08841044,0.0003074,53.2155,251.7393,23.4623,336.6509,0.00011929,1.611e-05,0.0,0 STARLINK-3843,1 52341U 22045L   22317.30427694  .00001611  00000-0  11929-3 0  9992,2 52341  53.2155 251.7393 0003074  23.4623 336.6509 15.08841044 32611,6917.877,95.437,541.869,537.616,0.0
52341.0,STARLINK-3843,PAYLOAD,2022-11-14 07:08:57,15.08830088,0.0003025,53.2169,247.2783,24.9237,335.1901,-1.6413e-05,-5.5e-06,0.0,0 STARLINK-3843,1 52341U 22045L   22318.29789326 -.00000550  00000-0 -16413-4 0  9991,2 52341  53.2169 247.2783 0003025  24.9237 335.1901 15.08830088 32764,6917.911,95.438,541.868,537.683,0.0
52341.0,STARLINK-3843,PAYLOAD,2022-11-14 11:55:07,15.08836406,0.0003056,53.2169,246.3871,25.6801,334.4342,-1.6445999999999998e-05,-5.5e-06,0.0,0 STARLINK-3843,1 52341U 22045L   22318.49660993 -.00000550  00000-0 -16446-4 0  9997,2 52341  53.2169 246.3871 0003056  25.6801 334.4342 15.08836406 32795,6917.891,95.438,541.87,537.6419999999998,0.0
52341.0,STARLINK-3843,PAYLOAD,2022-11-14 23:02:48,15.08841003,0.0003072,53.2155,244.3049,23.5419,336.5713,7.483899999999999e-05,9.03e-06,0.0,0 STARLINK-3843,1 52341U 22045L   22318.96028449  .00000903  00000-0  74839-4 0  9993,2 52341  53.2155 244.3049 0003072  23.5419 336.5713 15.08841003 32867,6917.877,95.437,541.867,537.617,0.0
52341.0,STARLINK-3843,PAYLOAD,2022-11-15 11:45:54,15.08836569,0.0003198,53.215,241.9267,23.1574,336.9562,0.00024138,3.555e-05,0.0,0 STARLINK-3843,1 52341U 22045L   22319.49021152  .00003555  00000-0  24138-3 0  9998,2 52341  53.2150 241.9267 0003198  23.1574 336.9562 15.08836569 32940,6917.891,95.438,541.9680000000002,537.544,0.0
52341.0,STARLINK-3843,PAYLOAD,2022-11-16 03:39:45,15.08853431,0.00031,53.2149,238.9528,22.4304,337.6824,0.00047079,7.215e-05,0.0,0 STARLINK-3843,1 52341U 22045L   22320.15260554  .00007215  00000-0  47079-3 0  9990,2 52341  53.2149 238.9528 0003100  22.4304 337.6824 15.08853431 33048,6917.839,95.437,541.849,537.56,0.0
52341.0,STARLINK-3843,PAYLOAD,2022-11-16 11:36:40,15.08845546,0.0003215,53.2149,237.4661,23.5202,336.5936,0.0001943,2.806e-05,0.0,0 STARLINK-3843,1 52341U 22045L   22320.48380759  .00002806  00000-0  19430-3 0  9997,2 52341  53.2149 237.4661 0003215  23.5202 336.5936 15.08845546 33091,6917.863,95.437,541.953,537.504,0.0
52341.0,STARLINK-3843,PAYLOAD,2022-11-17 11:27:27,15.08840921,0.0003061,53.2148,233.0053,23.5649,336.5483,5.985100000000003e-05,6.64e-06,0.0,0 STARLINK-3843,1 52341U 22045L   22321.47740596  .00000664  00000-0  59851-4 0  9998,2 52341  53.2148 233.0053 0003061  23.5649 336.5483 15.08840921 33247,6917.878000000002,95.437,541.86,537.625,0.0
